{
  "norad_id": 62785,
  "name": "QIANFAN-55",
  "history": [
    {
      "epoch": "2026-03-28T20:02:32.454240Z",
      "apogee_km": 1082.6150576664877,
      "perigee_km": 1054.4994677421064,
      "latitude_deg": 3.617336179614042e-05,
      "longitude_deg": -34.66737125350012,
      "height_km": 1061.8947077886598,
      "semi_major_axis_km": 7446.694262704296,
      "eccentricity": 0.00188779,
      "inclination_deg": 88.968,
      "raan_deg": 92.2177,
      "arg_perigee_deg": 47.0469,
      "mean_anomaly_deg": 313.2262,
      "mean_motion_rev_day": 13.51006619
    },
    {
      "epoch": "2026-03-29T03:09:08.555328Z",
      "apogee_km": 1082.5994388519412,
      "perigee_km": 1054.514976317455,
      "latitude_deg": 1.91820958176806e-05,
      "longitude_deg": -141.6406912330653,
      "height_km": 1061.7678422892714,
      "semi_major_axis_km": 7446.694207584697,
      "eccentricity": 0.0018857,
      "inclination_deg": 88.968,
      "raan_deg": 92.1868,
      "arg_perigee_deg": 46.2723,
      "mean_anomaly_deg": 313.9986,
      "mean_motion_rev_day": 13.51006634
    },
    {
      "epoch": "2026-03-30T04:02:14.898336Z",
      "apogee_km": 1082.546929111999,
      "perigee_km": 1054.566721732357,
      "latitude_deg": 2.3663379980700703e-05,
      "longitude_deg": -156.04711426511216,
      "height_km": 1061.332072991092,
      "semi_major_axis_km": 7446.693825422178,
      "eccentricity": 0.0018787,
      "inclination_deg": 88.968,
      "raan_deg": 92.0788,
      "arg_perigee_deg": 43.5234,
      "mean_anomaly_deg": 316.7396,
      "mean_motion_rev_day": 13.51006738
    },
    {
      "epoch": "2026-03-30T05:48:53.921664Z",
      "apogee_km": 1082.5440920052633,
      "perigee_km": 1054.569544140537,
      "latitude_deg": 4.844691984477663e-05,
      "longitude_deg": 177.2095894674264,
      "height_km": 1061.3038656664246,
      "semi_major_axis_km": 7446.693818072899,
      "eccentricity": 0.00187832,
      "inclination_deg": 88.968,
      "raan_deg": 92.0711,
      "arg_perigee_deg": 43.3423,
      "mean_anomaly_deg": 316.9202,
      "mean_motion_rev_day": 13.5100674
    },
    {
      "epoch": "2026-03-30T12:55:30.015840Z",
      "apogee_km": 1082.525640603304,
      "perigee_km": 1054.5877309684674,
      "latitude_deg": 8.265046555823324e-05,
      "longitude_deg": 70.23629962409012,
      "height_km": 1061.1824128218786,
      "semi_major_axis_km": 7446.6936857858855,
      "eccentricity": 0.00187586,
      "inclination_deg": 88.968,
      "raan_deg": 92.0402,
      "arg_perigee_deg": 42.5274,
      "mean_anomaly_deg": 317.7327,
      "mean_motion_rev_day": 13.51006776
    },
    {
      "epoch": "2026-03-30T20:02:06.110016Z",
      "apogee_km": 1082.508845045747,
      "perigee_km": 1054.6044456839627,
      "latitude_deg": 3.090976847044728e-06,
      "longitude_deg": -36.736892257998484,
      "height_km": 1061.0635088615836,
      "semi_major_axis_km": 7446.693645364854,
      "eccentricity": 0.00187361,
      "inclination_deg": 88.968,
      "raan_deg": 92.0094,
      "arg_perigee_deg": 41.7197,
      "mean_anomaly_deg": 318.5379,
      "mean_motion_rev_day": 13.51006787
    },
    {
      "epoch": "2026-03-31T19:08:33.412416Z",
      "apogee_km": 1082.4542440478335,
      "perigee_km": 1054.6587159643623,
      "latitude_deg": -1.7097580801740885e-05,
      "longitude_deg": -24.399946062926535,
      "height_km": 1060.6957676240197,
      "semi_major_axis_km": 7446.693480006097,
      "eccentricity": 0.0018663,
      "inclination_deg": 88.968,
      "raan_deg": 91.9091,
      "arg_perigee_deg": 39.1095,
      "mean_anomaly_deg": 321.1401,
      "mean_motion_rev_day": 13.51006832
    },
    {
      "epoch": "2026-04-01T20:01:39.724320Z",
      "apogee_km": 1082.3936460391542,
      "perigee_km": 1054.718755427948,
      "latitude_deg": 5.1741091338305956e-06,
      "longitude_deg": -38.80623814405863,
      "height_km": 1060.3357701020348,
      "semi_major_axis_km": 7446.693200733551,
      "eccentricity": 0.0018582,
      "inclination_deg": 88.9681,
      "raan_deg": 91.8011,
      "arg_perigee_deg": 36.3424,
      "mean_anomaly_deg": 323.8985,
      "mean_motion_rev_day": 13.51006908
    },
    {
      "epoch": "2026-04-02T19:08:07.010304Z",
      "apogee_km": 1082.3360230307553,
      "perigee_km": 1054.7758125420278,
      "latitude_deg": -1.6081182760749318e-05,
      "longitude_deg": -26.469123930690426,
      "height_km": 1060.0301712500848,
      "semi_major_axis_km": 7446.692917786391,
      "eccentricity": 0.0018505,
      "inclination_deg": 88.9682,
      "raan_deg": 91.7009,
      "arg_perigee_deg": 33.7824,
      "mean_anomaly_deg": 326.4502,
      "mean_motion_rev_day": 13.51006985
    },
    {
      "epoch": "2026-04-02T22:41:25.051776Z",
      "apogee_km": 1082.3271070829323,
      "perigee_km": 1054.7844712651804,
      "latitude_deg": 3.045635674483467e-05,
      "longitude_deg": -79.95569492870277,
      "height_km": 1059.9828599001153,
      "semi_major_axis_km": 7446.692789174056,
      "eccentricity": 0.00184932,
      "inclination_deg": 88.9682,
      "raan_deg": 91.6855,
      "arg_perigee_deg": 33.37,
      "mean_anomaly_deg": 326.8613,
      "mean_motion_rev_day": 13.5100702
    },
    {
      "epoch": "2026-04-03T20:01:13.298880Z",
      "apogee_km": 1082.2698736569628,
      "perigee_km": 1054.8407272374961,
      "latitude_deg": -6.686717376084704e-05,
      "longitude_deg": -40.87532108901054,
      "height_km": 1059.7282177788593,
      "semi_major_axis_km": 7446.692300447229,
      "eccentricity": 0.0018417,
      "inclination_deg": 88.9682,
      "raan_deg": 91.5929,
      "arg_perigee_deg": 30.9886,
      "mean_anomaly_deg": 329.2347,
      "mean_motion_rev_day": 13.51007153
    },
    {
      "epoch": "2026-04-04T19:07:40.571904Z",
      "apogee_km": 1082.2083127629749,
      "perigee_km": 1054.902780532927,
      "latitude_deg": 5.301357212490051e-06,
      "longitude_deg": -28.538152584605417,
      "height_km": 1059.4731701489964,
      "semi_major_axis_km": 7446.692546647951,
      "eccentricity": 0.0018334,
      "inclination_deg": 88.9683,
      "raan_deg": 91.4927,
      "arg_perigee_deg": 28.3569,
      "mean_anomaly_deg": 331.8576,
      "mean_motion_rev_day": 13.51007086
    },
    {
      "epoch": "2026-04-05T12:54:10.771488Z",
      "apogee_km": 1082.160034945532,
      "perigee_km": 1054.9505659489278,
      "latitude_deg": 5.6613979847268686e-05,
      "longitude_deg": 64.02891999106915,
      "height_km": 1059.2917908320633,
      "semi_major_axis_km": 7446.692300447229,
      "eccentricity": 0.00182695,
      "inclination_deg": 88.9684,
      "raan_deg": 91.4156,
      "arg_perigee_deg": 26.2921,
      "mean_anomaly_deg": 333.9154,
      "mean_motion_rev_day": 13.51007153
    },
    {
      "epoch": "2026-04-05T20:00:46.848384Z",
      "apogee_km": 1082.1409170332163,
      "perigee_km": 1054.969426636625,
      "latitude_deg": 5.0928659738458265e-05,
      "longitude_deg": -42.94429924293937,
      "height_km": 1059.2252499564363,
      "semi_major_axis_km": 7446.69217183492,
      "eccentricity": 0.0018244,
      "inclination_deg": 88.9684,
      "raan_deg": 91.3847,
      "arg_perigee_deg": 25.4799,
      "mean_anomaly_deg": 334.7248,
      "mean_motion_rev_day": 13.51007188
    },
    {
      "epoch": "2026-04-06T03:07:22.924416Z",
      "apogee_km": 1082.120280332504,
      "perigee_km": 1054.9897473185338,
      "latitude_deg": -2.5523316289065193e-05,
      "longitude_deg": -149.91741622458238,
      "height_km": 1059.1624479641773,
      "semi_major_axis_km": 7446.692013825519,
      "eccentricity": 0.00182165,
      "inclination_deg": 88.9685,
      "raan_deg": 91.3539,
      "arg_perigee_deg": 24.6647,
      "mean_anomaly_deg": 335.5371,
      "mean_motion_rev_day": 13.51007231
    },
    {
      "epoch": "2026-04-07T12:53:44.296800Z",
      "apogee_km": 1082.0233141998906,
      "perigee_km": 1055.0865444178407,
      "latitude_deg": 7.984764204974025e-05,
      "longitude_deg": 61.96003879027686,
      "height_km": 1058.90234035876,
      "semi_major_axis_km": 7446.691929308866,
      "eccentricity": 0.00180864,
      "inclination_deg": 88.9685,
      "raan_deg": 91.2074,
      "arg_perigee_deg": 20.8001,
      "mean_anomaly_deg": 339.3883,
      "mean_motion_rev_day": 13.51007254
    },
    {
      "epoch": "2026-04-07T20:00:20.371968Z",
      "apogee_km": 1082.002010981365,
      "perigee_km": 1055.1075389668686,
      "latitude_deg": 5.019599727745459e-05,
      "longitude_deg": -45.013073991334736,
      "height_km": 1058.8559518873135,
      "semi_major_axis_km": 7446.691774974116,
      "eccentricity": 0.0018058,
      "inclination_deg": 88.9685,
      "raan_deg": 91.1766,
      "arg_perigee_deg": 19.9856,
      "mean_anomaly_deg": 340.1999,
      "mean_motion_rev_day": 13.51007296
    },
    {
      "epoch": "2026-04-08T13:46:50.560320Z",
      "apogee_km": 1081.9502830842348,
      "perigee_km": 1055.1591713234393,
      "latitude_deg": 8.420536302765614e-05,
      "longitude_deg": 47.55404409709345,
      "height_km": 1058.7503624986678,
      "semi_major_axis_km": 7446.691727203836,
      "eccentricity": 0.00179886,
      "inclination_deg": 88.9686,
      "raan_deg": 91.0995,
      "arg_perigee_deg": 17.9376,
      "mean_anomaly_deg": 342.2407,
      "mean_motion_rev_day": 13.51007309
    },
    {
      "epoch": "2026-04-09T19:59:53.880000Z",
      "apogee_km": 1081.8541357838803,
      "perigee_km": 1055.2545542993912,
      "latitude_deg": -8.34616429606523e-06,
      "longitude_deg": -47.08188557442558,
      "height_km": 1058.619340393742,
      "semi_major_axis_km": 7446.691345041635,
      "eccentricity": 0.001786,
      "inclination_deg": 88.9686,
      "raan_deg": 90.9684,
      "arg_perigee_deg": 14.4775,
      "mean_anomaly_deg": 345.6884,
      "mean_motion_rev_day": 13.51007413
    }
  ]
}